2022-023A               
1 51946U 22023A   26066.38437076  .00004303  00000+0  19500-3 0  9999
2 51946  63.4765 256.0240 0098533 341.4326  18.3199 15.18202647222269
STARLINK-33550          
1 62285U 24237U   26068.43523758  .00026957  00000+0  98534-3 0  9990
2 62285  42.9960 217.7377 0000695 245.5691 114.5088 15.27587061 71154
