[{"OBJECT_NAME":"OBJECT A","OBJECT_ID":"2022-023A","EPOCH":"2026-03-07T09:13:29.633664","MEAN_MOTION":15.18202647,"ECCENTRICITY":0.00985337,"INCLINATION":63.4765,"RA_OF_ASC_NODE":256.024,"ARG_OF_PERICENTER":341.4326,"MEAN_ANOMALY":18.3199,"EPHEMERIS_TYPE":0,"CLASSIFICATION_TYPE":"U","NORAD_CAT_ID":51946,"ELEMENT_SET_NO":999,"REV_AT_EPOCH":22226,"BSTAR":0.00019500419,"MEAN_MOTION_DOT":4.303e-5,"MEAN_MOTION_DDOT":0},{"OBJECT_NAME":"STARLINK-33550","OBJECT_ID":"2024-237U","EPOCH":"2026-03-09T10:26:44.526912","MEAN_MOTION":15.27587061,"ECCENTRICITY":6.952e-5,"INCLINATION":42.996,"RA_OF_ASC_NODE":217.7377,"ARG_OF_PERICENTER":245.5691,"MEAN_ANOMALY":114.5088,"EPHEMERIS_TYPE":0,"CLASSIFICATION_TYPE":"U","NORAD_CAT_ID":62285,"ELEMENT_SET_NO":999,"REV_AT_EPOCH":7115,"BSTAR":0.00098534271,"MEAN_MOTION_DOT":0.00026957,"MEAN_MOTION_DDOT":0}]
